[
    {
        "CCSDS_OMM_VERS": "3.0",
        "COMMENT": "GENERATED VIA SPACE-TRACK.ORG API",
        "CREATION_DATE": "2025-02-28T19:05:01",
        "ORIGINATOR": "18 SPCS",
        "OBJECT_NAME": "COSMOS 2527 (GLONASS)",
        "OBJECT_ID": "2018-053A",
        "CENTER_NAME": "EARTH",
        "REF_FRAME": "TEME",
        "TIME_SYSTEM": "UTC",
        "MEAN_ELEMENT_THEORY": "SGP4",
        "EPOCH": "2025-02-28T03:08:55.836384",
        "MEAN_MOTION": "2.13102232",
        "ECCENTRICITY": "0.00098180",
        "INCLINATION": "65.3205",
        "RA_OF_ASC_NODE": "89.7499",
        "ARG_OF_PERICENTER": "242.9198",
        "MEAN_ANOMALY": "117.0582",
        "EPHEMERIS_TYPE": "0",
        "CLASSIFICATION_TYPE": "U",
        "NORAD_CAT_ID": "43508",
        "ELEMENT_SET_NO": "999",
        "REV_AT_EPOCH": "5217",
        "BSTAR": "0.00000000000000",
        "MEAN_MOTION_DOT": "0.00000059",
        "MEAN_MOTION_DDOT": "0.0000000000000",
        "SEMIMAJOR_AXIS": "25508.006",
        "PERIOD": "675.732",
        "APOAPSIS": "19154.915",
        "PERIAPSIS": "19104.827",
        "OBJECT_TYPE": "PAYLOAD",
        "RCS_SIZE": "LARGE",
        "COUNTRY_CODE": "CIS",
        "LAUNCH_DATE": "2018-06-16",
        "SITE": "PKMTR",
        "DECAY_DATE": null,
        "FILE": "4655208",
        "GP_ID": "281921107",
        "TLE_LINE0": "0 COSMOS 2527 (GLONASS)",
        "TLE_LINE1": "1 43508U 18053A   25059.13120181  .00000059  00000-0  00000-0 0  9999",
        "TLE_LINE2": "2 43508  65.3205  89.7499 0009818 242.9198 117.0582  2.13102232 52175"
    }
]